OBJECT_NAME,OBJECT_ID,EPOCH,MEAN_MOTION,ECCENTRICITY,INCLINATION,RA_OF_ASC_NODE,ARG_OF_PERICENTER,MEAN_ANOMALY,EPHEMERIS_TYPE,CLASSIFICATION_TYPE,NORAD_CAT_ID,ELEMENT_SET_NO,REV_AT_EPOCH,BSTAR,MEAN_MOTION_DOT,MEAN_MOTION_DDOT
IONOSFERA-M 2,2024-199B,2026-06-13T06:57:22.502592,14.22756832,.00012113,98.7177,37.4138,42.4312,317.6959,0,U,61736,999,13027,.44977238E-4,.57E-6,0
PRSC-EO1,2025-012A,2026-06-13T07:14:23.756640,15.17722311,.00042607,97.4232,236.8371,268.5452,91.5293,0,U,62725,999,7760,.33955575E-3,.6785E-4,0
BIOMASS,2025-090A,2026-06-13T06:48:12.081888,14.67537430,.00013724,98.0741,351.6572,91.7078,268.4284,0,U,63772,999,6011,.17337862E-3,.935E-5,0
GOSAT-GW (IBUKI GW),2025-141A,2026-06-13T07:17:28.689792,14.67556445,.00014318,98.0569,101.6840,84.3061,275.8307,0,U,64694,999,5127,.80922302E-4,.411E-5,0
IONOSFERA-M 3,2025-155A,2026-06-13T05:36:28.336320,14.21485862,.000078,98.6023,126.2382,164.3051,195.8151,0,U,64876,999,4584,.35219558E-4,.34E-6,0
IONOSFERA-M 4,2025-155B,2026-06-13T06:26:39.198336,14.21488039,.00009081,98.6030,126.1896,119.9867,240.1401,0,U,64877,999,4584,.37668068E-4,.4E-6,0
MICROCARB,2025-156A,2026-06-13T04:59:32.877888,14.72321705,.00149937,97.9831,241.4163,286.2051,73.7507,0,U,64899,999,4738,.79941744E-4,.456E-5,0
CO3D 3,2025-156B,2026-06-13T04:08:18.639744,15.20210297,.00013143,97.4335,242.9230,133.3812,226.7532,0,U,64900,999,4892,.21412333E-3,.4572E-4,0
CO3D 4,2025-156C,2026-06-13T05:43:19.141536,15.20191712,.00004897,97.4331,242.9882,11.3185,348.8061,0,U,64901,999,4893,.14844597E-4,.254E-5,0
CO3D 2,2025-156D,2026-06-13T06:30:05.007456,15.20211519,.00014795,97.4333,242.9190,112.2010,247.9382,0,U,64902,999,4893,.21105852E-3,.4505E-4,0
CO3D 1,2025-156E,2026-06-13T06:30:18.275040,15.20213823,.0001295,97.4334,242.9192,114.8612,245.2758,0,U,64903,999,4893,.23786292E-3,.5087E-4,0
PRSC-S1,2025-164A,2026-06-13T06:51:57.679200,15.06424937,.00071294,41.1315,309.7819,319.8638,40.1649,0,U,65055,999,4784,.35042368E-3,.5086E-4,0
SENTINEL-6B,2025-264A,2026-06-13T06:14:33.582624,12.80929965,.00080348,66.0391,143.3350,269.2381,90.7713,0,U,66514,999,2666,.50698506E-4,-.49E-6,0
CAS500-3,2025-274F,2026-06-13T05:57:57.960864,14.88312308,.00065834,97.7448,92.3892,120.4261,239.7608,0,U,66655,999,2956,.12855305E-3,.1135E-4,0
CSG-3,2026-001A,2026-06-13T05:10:54.693120,14.82151311,.00013412,97.8885,347.8753,94.5284,265.6083,0,U,67304,999,2387,.45686379E-4,.311E-5,0
PRSC-E03,2026-092A,2026-06-13T06:40:16.205376,15.06649983,.00044095,38.0000,112.7314,335.0853,24.9695,0,U,68835,999,736,.17280197E-3,.2504E-4,0
CAS500-2,2026-100AK,2026-06-13T06:28:11.940096,15.20546033,.00109934,97.4087,62.1925,47.1994,313.0164,0,U,69013,999,621,.30444695E-3,.6605E-4,0
