IONOSFERA-M 2           
1 61736U 24199B   26164.28984378  .00000057  00000+0  44977-4 0  9992
2 61736  98.7177  37.4138 0001211  42.4312 317.6959 14.22756832130274
PRSC-EO1                
1 62725U 25012A   26164.30166385  .00006785  00000+0  33956-3 0  9997
2 62725  97.4232 236.8371 0004260 268.5452  91.5293 15.17722311 77604
BIOMASS                 
1 63772U 25090A   26164.28347317  .00000935  00000+0  17338-3 0  9996
2 63772  98.0741 351.6572 0001372  91.7078 268.4284 14.67537430 60112
GOSAT-GW (IBUKI GW)     
1 64694U 25141A   26164.30380428  .00000411  00000+0  80922-4 0  9999
2 64694  98.0569 101.6840 0001431  84.3061 275.8307 14.67556445 51273
IONOSFERA-M 3           
1 64876U 25155A   26164.23366130  .00000034  00000+0  35220-4 0  9994
2 64876  98.6023 126.2382 0000780 164.3051 195.8151 14.21485862 45842
IONOSFERA-M 4           
1 64877U 25155B   26164.26850924  .00000040  00000+0  37668-4 0  9992
2 64877  98.6030 126.1896 0000908 119.9867 240.1401 14.21488039 45844
MICROCARB               
1 64899U 25156A   26164.20801942  .00000456  00000+0  79942-4 0  9999
2 64899  97.9831 241.4163 0014993 286.2051  73.7507 14.72321705 47389
CO3D 3                  
1 64900U 25156B   26164.17243796  .00004572  00000+0  21412-3 0  9996
2 64900  97.4335 242.9230 0001314 133.3812 226.7532 15.20210297 48923
CO3D 4                  
1 64901U 25156C   26164.23841599  .00000254  00000+0  14845-4 0  9995
2 64901  97.4331 242.9882 0000489  11.3185 348.8061 15.20191712 48937
CO3D 2                  
1 64902U 25156D   26164.27089129  .00004505  00000+0  21106-3 0  9993
2 64902  97.4333 242.9190 0001479 112.2010 247.9382 15.20211519 48933
CO3D 1                  
1 64903U 25156E   26164.27104485  .00005087  00000+0  23786-3 0  9999
2 64903  97.4334 242.9192 0001295 114.8612 245.2758 15.20213823 48937
PRSC-S1                 
1 65055U 25164A   26164.28608425  .00005086  00000+0  35042-3 0  9998
2 65055  41.1315 309.7819 0007129 319.8638  40.1649 15.06424937 47840
SENTINEL-6B             
1 66514U 25264A   26164.26011091 -.00000049  00000+0  50699-4 0  9996
2 66514  66.0391 143.3350 0008034 269.2381  90.7713 12.80929965 26662
CAS500-3                
1 66655U 25274F   26164.24858751  .00001135  00000+0  12855-3 0  9990
2 66655  97.7448  92.3892 0006583 120.4261 239.7608 14.88312308 29565
CSG-3                   
1 67304U 26001A   26164.21591080  .00000311  00000+0  45686-4 0  9991
2 67304  97.8885 347.8753 0001341  94.5284 265.6083 14.82151311 23872
PRSC-E03                
1 68835U 26092A   26164.27796534  .00002504  00000+0  17280-3 0  9992
2 68835  38.0000 112.7314 0004409 335.0853  24.9695 15.06649983  7368
CAS500-2                
1 69013U 26100AK  26164.26958264  .00006605  00000+0  30445-3 0  9994
2 69013  97.4087  62.1925 0010993  47.1994 313.0164 15.20546033  6213
